[
  {
    "name": "ONEWEB-0248",
    "noradId": "48798",
    "line1": "1 48798U 21045AH  26166.51524422 -.00000049  00000+0 -16435-3 0  9990",
    "line2": "2 48798  87.9011 259.5227 0001755 114.0705 246.0609 13.15548283244199"
  },
  {
    "name": "ONEWEB-0225",
    "noradId": "48799",
    "line1": "1 48799U 21045AJ  26166.53744009  .00000124  00000+0  29529-3 0  9998",
    "line2": "2 48799  87.9006 259.5266 0001434 109.4262 250.7024 13.15548661244202"
  },
  {
    "name": "ONEWEB-0215",
    "noradId": "48800",
    "line1": "1 48800U 21045AK  26166.50731473 -.00000124  00000+0 -36324-3 0  9992",
    "line2": "2 48800  87.9014 259.5149 0001453 116.9266 243.2012 13.15546273244078"
  },
  {
    "name": "ONEWEB-0216",
    "noradId": "48801",
    "line1": "1 48801U 21045AL  26166.51684111 -.00000083  00000+0 -25340-3 0  9990",
    "line2": "2 48801  87.9012 259.5281 0001963  98.4411 261.6941 13.15548632244083"
  },
  {
    "name": "ONEWEB-0239",
    "noradId": "48802",
    "line1": "1 48802U 21045AM  26166.52159013 -.00000142  00000+0 -41113-3 0  9992",
    "line2": "2 48802  87.8999 259.5336 0001633 124.6463 235.4821 13.15548609244126"
  },
  {
    "name": "ONEWEB-0249",
    "noradId": "48967",
    "line1": "1 48967U 21060A   26166.53295419  .00000013  00000+0  83252-6 0  9991",
    "line2": "2 48967  87.9098 229.1067 0002041 101.6969 258.4391 13.16595020239393"
  },
  {
    "name": "ONEWEB-0250",
    "noradId": "48968",
    "line1": "1 48968U 21060B   26166.42084266  .00000030  00000+0  39040-4 0  9999",
    "line2": "2 48968  87.9097 226.8910 0002790 115.3916 244.7509 13.25833544239989"
  },
  {
    "name": "ONEWEB-0252",
    "noradId": "48970",
    "line1": "1 48970U 21060D   26166.41183560  .00000097  00000+0  22010-3 0  9999",
    "line2": "2 48970  87.9101 229.1228 0001933  92.2347 267.9006 13.16594500239429"
  },
  {
    "name": "ONEWEB-0253",
    "noradId": "48971",
    "line1": "1 48971U 21060E   26166.40075372  .00000110  00000+0  25487-3 0  9997",
    "line2": "2 48971  87.9099 229.1306 0002071 101.6205 258.5159 13.16593738239354"
  },
  {
    "name": "ONEWEB-0254",
    "noradId": "48972",
    "line1": "1 48972U 21060F   26166.41025427  .00000062  00000+0  12837-3 0  9996",
    "line2": "2 48972  87.9101 229.1261 0001893 106.0820 254.0520 13.16595170239357"
  },
  {
    "name": "ONEWEB-0255",
    "noradId": "48973",
    "line1": "1 48973U 21060G   26166.44825333 -.00000033  00000+0 -11968-3 0  9998",
    "line2": "2 48973  87.9096 229.1254 0001872 102.0552 258.0789 13.16594725239433"
  },
  {
    "name": "ONEWEB-0256",
    "noradId": "48974",
    "line1": "1 48974U 21060H   26166.39837243  .00000099  00000+0  22647-3 0  9992",
    "line2": "2 48974  87.9095 229.1393 0002094  94.7360 265.4010 13.16593461239398"
  },
  {
    "name": "ONEWEB-0257",
    "noradId": "48975",
    "line1": "1 48975U 21060J   26166.12684401  .00000022  00000+0  24794-4 0  9992",
    "line2": "2 48975  87.9096 229.1803 0001896  97.1699 262.9648 13.16594589239310"
  },
  {
    "name": "ONEWEB-0258",
    "noradId": "48976",
    "line1": "1 48976U 21060K   26166.43241766  .00000008  00000+0 -11387-4 0  9999",
    "line2": "2 48976  87.9097 229.1316 0002073  99.6819 260.4547 13.16594608239368"
  },
  {
    "name": "ONEWEB-0259",
    "noradId": "48977",
    "line1": "1 48977U 21060L   26166.42608668  .00000070  00000+0  14840-3 0  9991",
    "line2": "2 48977  87.9098 229.1323 0002076 103.1748 256.9615 13.16595278239396"
  },
  {
    "name": "ONEWEB-0260",
    "noradId": "48978",
    "line1": "1 48978U 21060M   26166.41737266 -.00000025  00000+0 -99975-4 0  9993",
    "line2": "2 48978  87.9095 229.1355 0002011  86.7277 273.4084 13.16594309239377"
  },
  {
    "name": "ONEWEB-0261",
    "noradId": "48979",
    "line1": "1 48979U 21060N   26166.23528156  .00000133  00000+0  31496-3 0  9991",
    "line2": "2 48979  87.9096 229.1717 0001699  99.4484 260.6839 13.16595854239409"
  },
  {
    "name": "ONEWEB-0262",
    "noradId": "48980",
    "line1": "1 48980U 21060P   26166.13951347  .00000087  00000+0  19479-3 0  9999",
    "line2": "2 48980  87.9096 229.1767 0002057 106.4029 253.7328 13.16594439239357"
  },
  {
    "name": "ONEWEB-0263",
    "noradId": "48981",
    "line1": "1 48981U 21060Q   26166.47516596  .00000053  00000+0  10557-3 0  9991",
    "line2": "2 48981  87.9099 229.1216 0001717 103.0835 257.0488 13.16594789239363"
  },
  {
    "name": "ONEWEB-0264",
    "noradId": "48982",
    "line1": "1 48982U 21060R   26166.43637876  .00000021  00000+0  22323-4 0  9993",
    "line2": "2 48982  87.9098 229.1324 0001884  94.0747 266.0599 13.16595461239360"
  },
  {
    "name": "ONEWEB-0266",
    "noradId": "48984",
    "line1": "1 48984U 21060T   26166.53374796  .00000175  00000+0  42531-3 0  9997",
    "line2": "2 48984  87.9098 229.1035 0002135  98.6861 261.4512 13.16594719239367"
  },
  {
    "name": "ONEWEB-0267",
    "noradId": "48985",
    "line1": "1 48985U 21060U   26166.16484722  .00000165  00000+0  39786-3 0  9995",
    "line2": "2 48985  87.9101 229.1733 0001823  98.0016 262.1321 13.16594949239324"
  },
  {
    "name": "ONEWEB-0268",
    "noradId": "48986",
    "line1": "1 48986U 21060V   26166.13316650  .00000033  00000+0  51512-4 0  9993",
    "line2": "2 48986  87.9099 229.1893 0002056  94.1242 266.0124 13.16596240239583"
  },
  {
    "name": "ONEWEB-0269",
    "noradId": "48987",
    "line1": "1 48987U 21060W   26166.19017745  .00000088  00000+0  19730-3 0  9998",
    "line2": "2 48987  87.9093 229.1806 0002187  93.7573 266.3808 13.16595092239361"
  },
  {
    "name": "ONEWEB-0270",
    "noradId": "48988",
    "line1": "1 48988U 21060X   26166.43558632  .00000014  00000+0  33216-5 0  9997",
    "line2": "2 48988  87.9100 229.1312 0001844 107.2299 252.9034 13.16594626239430"
  },
  {
    "name": "ONEWEB-0271",
    "noradId": "48989",
    "line1": "1 48989U 21060Y   26166.42292001  .00000028  00000+0  39566-4 0  9990",
    "line2": "2 48989  87.9098 229.1234 0001815 100.7308 259.4028 13.16594741239430"
  },
  {
    "name": "ONEWEB-0272",
    "noradId": "48990",
    "line1": "1 48990U 21060Z   26166.44507436  .00000031  00000+0  46416-4 0  9991",
    "line2": "2 48990  87.9097 229.1311 0001878  90.8747 269.2600 13.16592830239388"
  },
  {
    "name": "ONEWEB-0273",
    "noradId": "48991",
    "line1": "1 48991U 21060AA  26166.46725069  .00000109  00000+0  25033-3 0  9995",
    "line2": "2 48991  87.9100 229.1256 0001896 100.6726 259.4618 13.16595388239368"
  },
  {
    "name": "ONEWEB-0274",
    "noradId": "48992",
    "line1": "1 48992U 21060AB  26166.18858846  .00000089  00000+0  19945-3 0  9997",
    "line2": "2 48992  87.9092 229.1836 0001959  89.0200 271.1156 13.16594389239368"
  },
  {
    "name": "ONEWEB-0275",
    "noradId": "48993",
    "line1": "1 48993U 21060AC  26166.40550757  .00000064  00000+0  13286-3 0  9998",
    "line2": "2 48993  87.9100 229.1294 0001939  95.9934 264.1418 13.16594391239327"
  }
]