OBJECT_NAME,OBJECT_ID,EPOCH,MEAN_MOTION,ECCENTRICITY,INCLINATION,RA_OF_ASC_NODE,ARG_OF_PERICENTER,MEAN_ANOMALY,EPHEMERIS_TYPE,CLASSIFICATION_TYPE,NORAD_CAT_ID,ELEMENT_SET_NO,REV_AT_EPOCH,BSTAR,MEAN_MOTION_DOT,MEAN_MOTION_DDOT
ONEWEB-0248,2021-045AH,2026-06-15T12:21:57.100608,13.15548283,.0001755,87.9011,259.5227,114.0705,246.0609,0,U,48798,999,24419,-.16435E-3,-.49E-6,0
ONEWEB-0225,2021-045AJ,2026-06-15T12:53:54.823776,13.15548661,.0001434,87.9006,259.5266,109.4262,250.7024,0,U,48799,999,24420,.29529E-3,.124E-5,0
ONEWEB-0215,2021-045AK,2026-06-15T12:10:31.992672,13.15546273,.0001453,87.9014,259.5149,116.9266,243.2012,0,U,48800,999,24407,-.36324E-3,-.124E-5,0
ONEWEB-0216,2021-045AL,2026-06-15T12:24:15.071904,13.15548632,.0001963,87.9012,259.5281,98.4411,261.6941,0,U,48801,999,24408,-.2534E-3,-.83E-6,0
ONEWEB-0239,2021-045AM,2026-06-15T12:31:05.387232,13.15548609,.0001633,87.8999,259.5336,124.6463,235.4821,0,U,48802,999,24412,-.41113E-3,-.142E-5,0
ONEWEB-0249,2021-060A,2026-06-15T12:47:27.242016,13.16595020,.0002041,87.9098,229.1067,101.6969,258.4391,0,U,48967,999,23939,.83252E-6,.13E-6,0
ONEWEB-0250,2021-060B,2026-06-15T10:06:00.805824,13.25833544,.000279,87.9097,226.8910,115.3916,244.7509,0,U,48968,999,23998,.3904E-4,.3E-6,0
ONEWEB-0252,2021-060D,2026-06-15T09:53:02.595840,13.16594500,.0001933,87.9101,229.1228,92.2347,267.9006,0,U,48970,999,23942,.2201E-3,.97E-6,0
ONEWEB-0253,2021-060E,2026-06-15T09:37:05.121408,13.16593738,.0002071,87.9099,229.1306,101.6205,258.5159,0,U,48971,999,23935,.25487E-3,.11E-5,0
ONEWEB-0254,2021-060F,2026-06-15T09:50:45.968928,13.16595170,.0001893,87.9101,229.1261,106.0820,254.0520,0,U,48972,999,23935,.12837E-3,.62E-6,0
ONEWEB-0255,2021-060G,2026-06-15T10:45:29.087712,13.16594725,.0001872,87.9096,229.1254,102.0552,258.0789,0,U,48973,999,23943,-.11968E-3,-.33E-6,0
ONEWEB-0256,2021-060H,2026-06-15T09:33:39.377952,13.16593461,.0002094,87.9095,229.1393,94.7360,265.4010,0,U,48974,999,23939,.22647E-3,.99E-6,0
ONEWEB-0257,2021-060J,2026-06-15T03:02:39.322464,13.16594589,.00018963,87.9096,229.1803,97.1699,262.9648,0,U,48975,999,23931,.24794334E-4,.22E-6,0
ONEWEB-0258,2021-060K,2026-06-15T10:22:40.885824,13.16594608,.0002073,87.9097,229.1316,99.6819,260.4547,0,U,48976,999,23936,-.11387E-4,.8E-7,0
ONEWEB-0259,2021-060L,2026-06-15T10:13:33.889152,13.16595278,.0002076,87.9098,229.1323,103.1748,256.9615,0,U,48977,999,23939,.1484E-3,.7E-6,0
ONEWEB-0260,2021-060M,2026-06-15T10:01:00.997824,13.16594309,.0002011,87.9095,229.1355,86.7277,273.4084,0,U,48978,999,23937,-.99975E-4,-.25E-6,0
ONEWEB-0261,2021-060N,2026-06-15T05:38:48.326784,13.16595854,.0001699,87.9096,229.1717,99.4484,260.6839,0,U,48979,999,23940,.31496E-3,.133E-5,0
ONEWEB-0262,2021-060P,2026-06-15T03:20:53.963808,13.16594439,.0002057,87.9096,229.1767,106.4029,253.7328,0,U,48980,999,23935,.19478914E-3,.87E-6,0
ONEWEB-0263,2021-060Q,2026-06-15T11:24:14.338944,13.16594789,.0001717,87.9099,229.1216,103.0835,257.0488,0,U,48981,999,23936,.10557E-3,.53E-6,0
ONEWEB-0264,2021-060R,2026-06-15T10:28:23.124864,13.16595461,.0001884,87.9098,229.1324,94.0747,266.0599,0,U,48982,999,23936,.22323E-4,.21E-6,0
ONEWEB-0266,2021-060T,2026-06-15T12:48:35.823744,13.16594719,.0002135,87.9098,229.1035,98.6861,261.4512,0,U,48984,999,23936,.42531E-3,.175E-5,0
ONEWEB-0267,2021-060U,2026-06-15T03:57:22.799808,13.16594949,.00018239,87.9101,229.1733,98.0016,262.1321,0,U,48985,999,23932,.39785635E-3,.165E-5,0
ONEWEB-0268,2021-060V,2026-06-15T03:11:45.585600,13.16596240,.00020565,87.9099,229.1893,94.1242,266.0124,0,U,48986,999,23958,.51511735E-4,.33E-6,0
ONEWEB-0269,2021-060W,2026-06-15T04:33:51.331680,13.16595092,.00021873,87.9093,229.1806,93.7573,266.3808,0,U,48987,999,23936,.19730416E-3,.88E-6,0
ONEWEB-0270,2021-060X,2026-06-15T10:27:14.658048,13.16594626,.0001844,87.9100,229.1312,107.2299,252.9034,0,U,48988,999,23943,.33216E-5,.14E-6,0
ONEWEB-0271,2021-060Y,2026-06-15T10:09:00.288864,13.16594741,.0001815,87.9098,229.1234,100.7308,259.4028,0,U,48989,999,23943,.39566E-4,.28E-6,0
ONEWEB-0272,2021-060Z,2026-06-15T10:40:54.424704,13.16592830,.0001878,87.9097,229.1311,90.8747,269.2600,0,U,48990,999,23938,.46416E-4,.31E-6,0
ONEWEB-0273,2021-060AA,2026-06-15T11:12:50.459616,13.16595388,.0001896,87.9100,229.1256,100.6726,259.4618,0,U,48991,999,23936,.25033E-3,.109E-5,0
ONEWEB-0274,2021-060AB,2026-06-15T04:31:34.042944,13.16594389,.00019599,87.9092,229.1836,89.0200,271.1156,0,U,48992,999,23936,.19945117E-3,.89E-6,0
ONEWEB-0275,2021-060AC,2026-06-15T09:43:55.854048,13.16594391,.0001939,87.9100,229.1294,95.9934,264.1418,0,U,48993,999,23932,.13286E-3,.64E-6,0
